{"type": "FeatureCollection", "features": [ {"type": "Feature", "properties": {"norad_id": 67056, "name": "STARLINK-36143", "group": "last-30-days", "lat": -13.564527394483827, "lon": 123.03069053100526, "alt_km": 301.32631594777285, "timestamp": "2025-12-19T22:41:51.099873+00:00", "meta": {"OBJECT_NAME": "STARLINK-36143", "OBJECT_ID": "2025-294AC", "EPOCH": "2025-12-19T18:00:00.998784", "MEAN_MOTION": 15.91334672, "ECCENTRICITY": 0.0001499, "INCLINATION": 42.9998, "RA_OF_ASC_NODE": 139.2529, "ARG_OF_PERICENTER": 268.8006, "MEAN_ANOMALY": 28.7552, "EPHEMERIS_TYPE": 0, "CLASSIFICATION_TYPE": "U", "NORAD_CAT_ID": 67056, "ELEMENT_SET_NO": 999, "REV_AT_EPOCH": 143, "BSTAR": -0.005245, "MEAN_MOTION_DOT": -0.0173427, "MEAN_MOTION_DDOT": 0.00082356}, "tle": {"line1": "1 67056U 25294AC  25353.75001156 -.01734270  82356-3 -52450-2 0  9990", "line2": "2 67056  42.9998 139.2529 0001499 268.8006  28.7552 15.91334672  1439"}}, "geometry": {"type": "Point", "coordinates": [123.03069053100526, -13.564527394483827]}}, {"type": "Feature", "properties": {"norad_id": 67057, "name": "STARLINK-36141", "group": "last-30-days", "lat": -14.871456475483908, "lon": 121.48499353775294, "alt_km": 301.42950636197475, "timestamp": "2025-12-19T22:41:51.099884+00:00", "meta": {"OBJECT_NAME": "STARLINK-36141", "OBJECT_ID": "2025-294AD", "EPOCH": "2025-12-19T18:00:00.998784", "MEAN_MOTION": 15.91278025, "ECCENTRICITY": 0.0001482, "INCLINATION": 42.9998, "RA_OF_ASC_NODE": 139.2583, "ARG_OF_PERICENTER": 276.5239, "MEAN_ANOMALY": 19.079, "EPHEMERIS_TYPE": 0, "CLASSIFICATION_TYPE": "U", "NORAD_CAT_ID": 67057, "ELEMENT_SET_NO": 999, "REV_AT_EPOCH": 135, "BSTAR": -0.005228, "MEAN_MOTION_DOT": -0.01723755, "MEAN_MOTION_DDOT": 0.00081392}, "tle": {"line1": "1 67057U 25294AD  25353.75001156 -.01723755  81392-3 -52280-2 0  9997", "line2": "2 67057  42.9998 139.2583 0001482 276.5239  19.0790 15.91278025  1353"}}, "geometry": {"type": "Point", "coordinates": [121.48499353775294, -14.871456475483908]}}, {"type": "Feature", "properties": {"norad_id": 67058, "name": "STARLINK-35767", "group": "last-30-days", "lat": -16.026019818841636, "lon": 120.0925222542654, "alt_km": 301.694886377325, "timestamp": "2025-12-19T22:41:51.099896+00:00", "meta": {"OBJECT_NAME": "STARLINK-35767", "OBJECT_ID": "2025-294AE", "EPOCH": "2025-12-19T18:00:00.998784", "MEAN_MOTION": 15.91228353, "ECCENTRICITY": 0.0001565, "INCLINATION": 42.9999, "RA_OF_ASC_NODE": 139.2623, "ARG_OF_PERICENTER": 272.366, "MEAN_ANOMALY": 21.4958, "EPHEMERIS_TYPE": 0, "CLASSIFICATION_TYPE": "U", "NORAD_CAT_ID": 67058, "ELEMENT_SET_NO": 999, "REV_AT_EPOCH": 130, "BSTAR": -0.0052281, "MEAN_MOTION_DOT": -0.01719459, "MEAN_MOTION_DDOT": 0.00080979}, "tle": {"line1": "1 67058U 25294AE  25353.75001156 -.01719459  80979-3 -52281-2 0  9995", "line2": "2 67058  42.9999 139.2623 0001565 272.3660  21.4958 15.91228353  1301"}}, "geometry": {"type": "Point", "coordinates": [120.0925222542654, -16.026019818841636]}}, {"type": "Feature", "properties": {"norad_id": 67059, "name": "HULIANWANG DIGUI-119", "group": "last-30-days", "lat": 43.86488280111089, "lon": 108.03242673321155, "alt_km": 809.7110286664501, "timestamp": "2025-12-19T22:41:51.099906+00:00", "meta": {"OBJECT_NAME": "HULIANWANG DIGUI-119", "OBJECT_ID": "2025-295A", "EPOCH": "2025-12-17T11:16:29.850816", "MEAN_MOTION": 14.25569756, "ECCENTRICITY": 0.00138963, "INCLINATION": 50.007, "RA_OF_ASC_NODE": 352.2731, "ARG_OF_PERICENTER": 264.5159, "MEAN_ANOMALY": 95.417, "EPHEMERIS_TYPE": 0, "CLASSIFICATION_TYPE": "U", "NORAD_CAT_ID": 67059, "ELEMENT_SET_NO": 999, "REV_AT_EPOCH": 79, "BSTAR": -9.003402e-06, "MEAN_MOTION_DOT": -1.82e-06, "MEAN_MOTION_DDOT": 0}, "tle": {"line1": "1 67059U 25295A   25351.46978994 -.00000182  00000+0 -90034-5 0  9995", "line2": "2 67059  50.0070 352.2731 0013896 264.5159  95.4170 14.25569756   795"}}, "geometry": {"type": "Point", "coordinates": [108.03242673321155, 43.86488280111089]}}, {"type": "Feature", "properties": {"norad_id": 67060, "name": "HULIANWANG DIGUI-120", "group": "last-30-days", "lat": 42.00358719630701, "lon": 112.69852184074885, "alt_km": 808.7296869602405, "timestamp": "2025-12-19T22:41:51.099917+00:00", "meta": {"OBJECT_NAME": "HULIANWANG DIGUI-120", "OBJECT_ID": "2025-295B", "EPOCH": "2025-12-15T17:12:24.401376", "MEAN_MOTION": 14.25706335, "ECCENTRICITY": 0.00132237, "INCLINATION": 50.005, "RA_OF_ASC_NODE": 359.6709, "ARG_OF_PERICENTER": 257.265, "MEAN_ANOMALY": 102.6786, "EPHEMERIS_TYPE": 0, "CLASSIFICATION_TYPE": "U", "NORAD_CAT_ID": 67060, "ELEMENT_SET_NO": 999, "REV_AT_EPOCH": 54, "BSTAR": 6.6896441e-05, "MEAN_MOTION_DOT": 0, "MEAN_MOTION_DDOT": 0}, "tle": {"line1": "1 67060U 25295B   25349.71694909  .00000000  00000+0  66896-4 0  9998", "line2": "2 67060  50.0050 359.6709 0013223 257.2650 102.6786 14.25706335   543"}}, "geometry": {"type": "Point", "coordinates": [112.69852184074885, 42.00358719630701]}}, {"type": "Feature", "properties": {"norad_id": 67061, "name": "HULIANWANG DIGUI-121", "group": "last-30-days", "lat": 41.761836629021396, "lon": 113.23350681668379, "alt_km": 808.6095963488078, "timestamp": "2025-12-19T22:41:51.099927+00:00", "meta": {"OBJECT_NAME": "HULIANWANG DIGUI-121", "OBJECT_ID": "2025-295C", "EPOCH": "2025-12-15T17:12:22.292352", "MEAN_MOTION": 14.25729079, "ECCENTRICITY": 0.00132682, "INCLINATION": 50.0012, "RA_OF_ASC_NODE": 359.6606, "ARG_OF_PERICENTER": 256.3366, "MEAN_ANOMALY": 103.6071, "EPHEMERIS_TYPE": 0, "CLASSIFICATION_TYPE": "U", "NORAD_CAT_ID": 67061, "ELEMENT_SET_NO": 999, "REV_AT_EPOCH": 54, "BSTAR": 6.6638352e-05, "MEAN_MOTION_DOT": -1e-08, "MEAN_MOTION_DDOT": 0}, "tle": {"line1": "1 67061U 25295C   25349.71692468 -.00000001  00000+0  66638-4 0  9993", "line2": "2 67061  50.0012 359.6606 0013268 256.3366 103.6071 14.25729079   549"}}, "geometry": {"type": "Point", "coordinates": [113.23350681668379, 41.761836629021396]}}, {"type": "Feature", "properties": {"norad_id": 67062, "name": "HULIANWANG DIGUI-122", "group": "last-30-days", "lat": 41.29245702771343, "lon": 114.30832953569369, "alt_km": 808.9932323783205, "timestamp": "2025-12-19T22:41:51.099939+00:00", "meta": {"OBJECT_NAME": "HULIANWANG DIGUI-122", "OBJECT_ID": "2025-295D", "EPOCH": "2025-12-19T17:05:15.368352", "MEAN_MOTION": 14.25755341, "ECCENTRICITY": 0.0013165, "INCLINATION": 50.0054, "RA_OF_ASC_NODE": 342.7978, "ARG_OF_PERICENTER": 277.7958, "MEAN_ANOMALY": 82.1461, "EPHEMERIS_TYPE": 0, "CLASSIFICATION_TYPE": "U", "NORAD_CAT_ID": 67062, "ELEMENT_SET_NO": 999, "REV_AT_EPOCH": 111, "BSTAR": 0.00011644, "MEAN_MOTION_DOT": 1.18e-06, "MEAN_MOTION_DDOT": 0}, "tle": {"line1": "1 67062U 25295D   25353.71198343  .00000118  00000+0  11644-3 0  9996", "line2": "2 67062  50.0054 342.7978 0013165 277.7958  82.1461 14.25755341  1110"}}, "geometry": {"type": "Point", "coordinates": [114.30832953569369, 41.29245702771343]}}, {"type": "Feature", "properties": {"norad_id": 67063, "name": "HULIANWANG DIGUI-123", "group": "last-30-days", "lat": 39.24979947712361, "lon": 118.50259927368987, "alt_km": 808.1064413285703, "timestamp": "2025-12-19T22:41:51.099949+00:00", "meta": {"OBJECT_NAME": "HULIANWANG DIGUI-123", "OBJECT_ID": "2025-295E", "EPOCH": "2025-12-19T17:04:13.435104", "MEAN_MOTION": 14.25888152, "ECCENTRICITY": 0.0012481, "INCLINATION": 50.0061, "RA_OF_ASC_NODE": 342.7964, "ARG_OF_PERICENTER": 276.983, "MEAN_ANOMALY": 82.9664, "EPHEMERIS_TYPE": 0, "CLASSIFICATION_TYPE": "U", "NORAD_CAT_ID": 67063, "ELEMENT_SET_NO": 999, "REV_AT_EPOCH": 111, "BSTAR": 0.00011409, "MEAN_MOTION_DOT": 1.13e-06, "MEAN_MOTION_DDOT": 0}, "tle": {"line1": "1 67063U 25295E   25353.71126661  .00000113  00000+0  11409-3 0  9995", "line2": "2 67063  50.0061 342.7964 0012481 276.9830  82.9664 14.25888152  1114"}}, "geometry": {"type": "Point", "coordinates": [118.50259927368987, 39.24979947712361]}}, {"type": "Feature", "properties": {"norad_id": 67064, "name": "HULIANWANG DIGUI-124", "group": "last-30-days", "lat": 38.27037515896772, "lon": 120.31225915501746, "alt_km": 807.2635109541789, "timestamp": "2025-12-19T22:41:51.099959+00:00", "meta": {"OBJECT_NAME": "HULIANWANG DIGUI-124", "OBJECT_ID": "2025-295F", "EPOCH": "2025-12-19T18:44:40.116768", "MEAN_MOTION": 14.25949421, "ECCENTRICITY": 0.0012089, "INCLINATION": 50.0035, "RA_OF_ASC_NODE": 342.4852, "ARG_OF_PERICENTER": 271.8822, "MEAN_ANOMALY": 88.0708, "EPHEMERIS_TYPE": 0, "CLASSIFICATION_TYPE": "U", "NORAD_CAT_ID": 67064, "ELEMENT_SET_NO": 999, "REV_AT_EPOCH": 112, "BSTAR": -0.00019275, "MEAN_MOTION_DOT": -6.23e-06, "MEAN_MOTION_DDOT": 0}, "tle": {"line1": "1 67064U 25295F   25353.78101987 -.00000623  00000+0 -19275-3 0  9994", "line2": "2 67064  50.0035 342.4852 0012089 271.8822  88.0708 14.25949421  1122"}}, "geometry": {"type": "Point", "coordinates": [120.31225915501746, 38.27037515896772]}}, {"type": "Feature", "properties": {"norad_id": 67065, "name": "HULIANWANG DIGUI-125", "group": "last-30-days", "lat": 38.18821521350499, "lon": 120.45533004081702, "alt_km": 807.8326659669601, "timestamp": "2025-12-19T22:41:51.099969+00:00", "meta": {"OBJECT_NAME": "HULIANWANG DIGUI-125", "OBJECT_ID": "2025-295G", "EPOCH": "2025-12-19T18:44:37.976640", "MEAN_MOTION": 14.25953854, "ECCENTRICITY": 0.0012279, "INCLINATION": 50.0012, "RA_OF_ASC_NODE": 342.4835, "ARG_OF_PERICENTER": 277.8662, "MEAN_ANOMALY": 82.0858, "EPHEMERIS_TYPE": 0, "CLASSIFICATION_TYPE": "U", "NORAD_CAT_ID": 67065, "ELEMENT_SET_NO": 999, "REV_AT_EPOCH": 112, "BSTAR": 0.00010857, "MEAN_MOTION_DOT": 1.01e-06, "MEAN_MOTION_DDOT": 0}, "tle": {"line1": "1 67065U 25295G   25353.78099510  .00000101  00000+0  10857-3 0  9999", "line2": "2 67065  50.0012 342.4835 0012279 277.8662  82.0858 14.25953854  1123"}}, "geometry": {"type": "Point", "coordinates": [120.45533004081702, 38.18821521350499]}}]}